NORAD_CAT_ID,OBJECT_NAME,OBJECT_TYPE,EPOCH,MEAN_MOTION,ECCENTRICITY,INCLINATION,RA_OF_ASC_NODE,ARG_OF_PERICENTER,MEAN_ANOMALY,BSTAR,MEAN_MOTION_DOT,MEAN_MOTION_DDOT,TLE_LINE0,TLE_LINE1,TLE_LINE2,SEMIMAJOR_AXIS,PERIOD,APOGEE,PERIGEE,DECAYED
52621.0,STARLINK-3984,PAYLOAD,2022-10-18 12:12:01,15.08823698,0.0001789,53.2186,67.5389,42.62600000000001,317.487,0.00018035,2.582e-05,0.0,0 STARLINK-3984,1 52621U 22052Z   22291.50834840  .00002582  00000-0  18035-3 0  9992,2 52621  53.2186  67.5389 0001789  42.6260 317.4870 15.08823698 24068,6917.93,95.439,541.033,538.558,0.0
52621.0,STARLINK-3984,PAYLOAD,2022-10-19 08:52:02,15.08836372,0.0001881,53.219,63.6733,45.8217,314.293,8.5407e-05,1.071e-05,0.0,0 STARLINK-3984,1 52621U 22052Z   22292.36946964  .00001071  00000-0  85407-4 0  9998,2 52621  53.2190  63.6733 0001881  45.8217 314.2930 15.08836372 24574,6917.891,95.438,541.058,538.455,0.0
52621.0,STARLINK-3984,PAYLOAD,2022-10-19 10:27:25,15.08840704,0.0002206,53.2184,63.378,43.4778,316.6388,0.00010514,1.385e-05,0.0,0 STARLINK-3984,1 52621U 22052Z   22292.43570719  .00001385  00000-0  10514-3 0  9991,2 52621  53.2184  63.3780 0002206  43.4778 316.6388 15.08840704 24201,6917.878000000002,95.438,541.269,538.217,0.0
52621.0,STARLINK-3984,PAYLOAD,2022-10-19 15:13:34,15.08844462,0.0002055,53.2189,62.4861,43.1129,317.0024,0.00014894,2.083e-05,0.0,0 STARLINK-3984,1 52621U 22052Z   22292.63442338  .00002083  00000-0  14894-3 0  9999,2 52621  53.2189  62.4861 0002055  43.1129 317.0024 15.08844462 24235,6917.8669999999975,95.437,541.153,538.31,0.0
52621.0,STARLINK-3984,PAYLOAD,2022-10-20 11:53:34,15.08853735,0.000213,53.2189,58.6209,42.352,317.7636,1.5165e-05,-4.7e-07,0.0,0 STARLINK-3984,1 52621U 22052Z   22293.49553624 -.00000047  00000-0  15165-4 0  9997,2 52621  53.2189  58.6209 0002130  42.3520 317.7636 15.08853735 24361,6917.8380000000025,95.437,541.177,538.23,0.0
52621.0,STARLINK-3984,PAYLOAD,2022-10-20 15:04:21,15.08830824,0.0001921999999999,53.2188,58.0259,43.6157,316.4987,0.00032754,4.927e-05,0.0,0 STARLINK-3984,1 52621U 22052Z   22293.62802383  .00004927  00000-0  32754-3 0  9993,2 52621  53.2188  58.0259 0001922  43.6157 316.4987 15.08830824 24760,6917.908,95.438,541.1030000000002,538.444,0.0
52621.0,STARLINK-3984,PAYLOAD,2022-10-21 10:08:59,15.088376,0.0002110999999999,53.219,54.4582,39.7381,320.3765,-5.651600000000001e-05,-1.188e-05,0.0,0 STARLINK-3984,1 52621U 22052Z   22294.42290667 -.00001188  00000-0 -56516-4 0  9999,2 52621  53.2190  54.4582 0002111  39.7381 320.3765 15.08837600 24507,6917.888000000001,95.438,541.2130000000002,538.2919999999998,0.0
52621.0,STARLINK-3984,PAYLOAD,2022-10-21 18:05:54,15.08844276,0.0002134999999999,53.2187,52.9709,41.4842,318.6312,-3.1722e-05,-7.93e-06,0.0,0 STARLINK-3984,1 52621U 22052Z   22294.75410101 -.00000793  00000-0 -31722-4 0  9995,2 52621  53.2187  52.9709 0002135  41.4842 318.6312 15.08844276 24555,6917.8669999999975,95.437,541.2090000000002,538.255,0.0
52621.0,STARLINK-3984,PAYLOAD,2022-10-22 13:10:31,15.088420800000002,0.0002151999999999,53.2189,49.403,38.9636,321.1511,-1.6906e-05,-5.57e-06,0.0,0 STARLINK-3984,1 52621U 22052Z   22295.54897921 -.00000557  00000-0 -16906-4 0  9997,2 52621  53.2189  49.4030 0002152  38.9636 321.1511 15.08842080 24670,6917.874,95.437,541.2280000000002,538.25,0.0
52621.0,STARLINK-3984,PAYLOAD,2022-10-22 14:45:54,15.08845049,0.0002136,53.219,49.1059,37.932,322.1822,5.689600000000001e-06,-1.98e-06,0.0,0 STARLINK-3984,1 52621U 22052Z   22295.61521640 -.00000198  00000-0  56896-5 0  9990,2 52621  53.2190  49.1059 0002136  37.9320 322.1822 15.08845049 24686,6917.865,95.437,541.2080000000002,538.252,0.0
52621.0,STARLINK-3984,PAYLOAD,2022-10-23 08:15:08,15.08843911,0.0002166999999999,53.219,45.8346,39.4608,320.6541,0.00014141,1.963e-05,0.0,0 STARLINK-3984,1 52621U 22052Z   22296.34385020  .00001963  00000-0  14141-3 0  9996,2 52621  53.2190  45.8346 0002167  39.4608 320.6541 15.08843911 25170,6917.868,95.437,541.2330000000002,538.234,0.0
52621.0,STARLINK-3984,PAYLOAD,2022-10-23 11:25:52,15.08882128,0.0002150999999999,53.2191,45.2411,36.6338,323.4801,0.00046051,7.057e-05,0.0,0 STARLINK-3984,1 52621U 22052Z   22296.47629634  .00007057  00000-0  46051-3 0  9997,2 52621  53.2191  45.2411 0002151  36.6338 323.4801 15.08882128 24813,6917.752,95.435,541.105,538.129,0.0
52621.0,STARLINK-3984,PAYLOAD,2022-10-23 17:47:23,15.0888641,0.0002121,53.2184,44.0524,39.8032,320.3116,0.00041107,6.268e-05,0.0,0 STARLINK-3984,1 52621U 22052Z   22296.74124884  .00006268  00000-0  41107-3 0  9994,2 52621  53.2184  44.0524 0002121  39.8032 320.3116 15.08886410 25230,6917.739000000001,95.435,541.071,538.136,0.0
52621.0,STARLINK-3984,PAYLOAD,2022-10-24 00:08:58,15.08864085,0.0002452,53.2191,42.8615,48.6625,311.4578,0.00015011,2.103e-05,0.0,0 STARLINK-3984,1 52621U 22052Z   22297.00622729  .00002103  00000-0  15011-3 0  9994,2 52621  53.2191  42.8615 0002452  48.6625 311.4578 15.08864085 25279,6917.807,95.436,541.368,537.976,0.0
52621.0,STARLINK-3984,PAYLOAD,2022-10-24 09:41:19,15.08824491,0.0001774999999999,53.2193,41.0775,38.5855,321.5263,-8.8828e-05,-1.701e-05,0.0,0 STARLINK-3984,1 52621U 22052Z   22297.40369584 -.00001701  00000-0 -88828-4 0  9997,2 52621  53.2193  41.0775 0001775  38.5855 321.5263 15.08824491 25336,6917.928000000001,95.439,541.021,538.565,0.0
52621.0,STARLINK-3984,PAYLOAD,2022-10-24 14:27:28,15.08825805,0.0001901,53.2189,40.1851,39.4925,320.6205,-9.3139e-05,-1.77e-05,0.0,0 STARLINK-3984,1 52621U 22052Z   22297.60241702 -.00001770  00000-0 -93139-4 0  9997,2 52621  53.2189  40.1851 0001901  39.4925 320.6205 15.08825805 24981,6917.924,95.438,541.104,538.474,0.0
52621.0,STARLINK-3984,PAYLOAD,2022-10-25 09:32:06,15.08832569,0.0001974,53.2191,36.6168,43.6018,316.513,-0.00012971,-2.352e-05,0.0,0 STARLINK-3984,1 52621U 22052Z   22298.39729600 -.00002352  00000-0 -12971-3 0  9993,2 52621  53.2191  36.6168 0001974  43.6018 316.5130 15.08832569 25487,6917.903,95.438,541.134,538.403,0.0
52621.0,STARLINK-3984,PAYLOAD,2022-10-25 12:42:52,15.08831562,0.0002012,53.2192,36.0222,43.1085,317.0064,-0.00013199,-2.388e-05,0.0,0 STARLINK-3984,1 52621U 22052Z   22298.52977737 -.00002388  00000-0 -13199-3 0  9996,2 52621  53.2192  36.0222 0002012  43.1085 317.0064 15.08831562 25121,6917.906,95.438,541.163,538.379,0.0
52621.0,STARLINK-3984,PAYLOAD,2022-10-26 03:01:20,15.08837211,0.000215,53.2194,33.3456,41.2646,318.8509,-0.00014418,-2.582e-05,0.0,0 STARLINK-3984,1 52621U 22052Z   22299.12593403 -.00002582  00000-0 -14418-3 0  9998,2 52621  53.2194  33.3456 0002150  41.2646 318.8509 15.08837211 25598,6917.889,95.438,541.241,538.2669999999998,0.0
52621.0,STARLINK-3984,PAYLOAD,2022-10-26 12:33:39,15.08834074,0.000198,53.2192,31.5614,42.9405,317.1742,9.1311e-05,1.165e-05,0.0,0 STARLINK-3984,1 52621U 22052Z   22299.52337105  .00001165  00000-0  91311-4 0  9999,2 52621  53.2192  31.5614 0001980  42.9405 317.1742 15.08834074 25273,6917.899,95.438,541.133,538.394,0.0
52621.0,STARLINK-3984,PAYLOAD,2022-10-27 12:24:26,15.08836633,0.0001969,53.2195,27.1017,38.4914,321.6218,0.00023012,3.376e-05,0.0,0 STARLINK-3984,1 52621U 22052Z   22300.51697596  .00003376  00000-0  23012-3 0  9992,2 52621  53.2195  27.1017 0001969  38.4914 321.6218 15.08836633 25806,6917.891,95.438,541.118,538.394,0.0
52621.0,STARLINK-3984,PAYLOAD,2022-10-28 12:15:13,15.08849674,0.000206,53.2186,22.6415,37.2562,322.8573,0.00016193,2.291e-05,0.0,0 STARLINK-3984,1 52621U 22052Z   22301.51057126  .00002291  00000-0  16193-3 0  9999,2 52621  53.2186  22.6415 0002060  37.2562 322.8573 15.08849674 25577,6917.851,95.437,541.141,538.2909999999998,0.0
52621.0,STARLINK-3984,PAYLOAD,2022-10-29 08:55:15,15.0883548,0.0002082,53.2176,18.7754,40.0099,320.1046,-1.6512e-05,-5.51e-06,0.0,0 STARLINK-3984,1 52621U 22052Z   22302.37170377 -.00000551  00000-0 -16512-4 0  9993,2 52621  53.2176  18.7754 0002082  40.0099 320.1046 15.08835480 25700,6917.894,95.438,541.2,538.319,0.0
52621.0,STARLINK-3984,PAYLOAD,2022-10-29 15:16:47,15.08830631,0.000202,53.2177,17.5853,42.8327,317.2822,3.861300000000001e-05,3.26e-06,0.0,0 STARLINK-3984,1 52621U 22052Z   22302.63666451  .00000326  00000-0  38613-4 0  9999,2 52621  53.2177  17.5853 0002020  42.8327 317.2822 15.08830631 25740,6917.909000000002,95.438,541.1709999999998,538.377,0.0
52621.0,STARLINK-3984,PAYLOAD,2022-10-30 11:56:46,15.08852558,0.0002064,53.2176,13.7207,36.5984,323.5149,5.5604e-05,5.97e-06,0.0,0 STARLINK-3984,1 52621U 22052Z   22303.49776526  .00000597  00000-0  55604-4 0  9998,2 52621  53.2176  13.7207 0002064  36.5984 323.5149 15.08852558 25875,6917.842,95.437,541.135,538.279,0.0
52621.0,STARLINK-3984,PAYLOAD,2022-10-31 11:47:36,15.08819234,0.0002184,53.2171,9.2617,37.2696,322.8448,-4.8635e-05,-1.062e-05,0.0,0 STARLINK-3984,1 52621U 22052Z   22304.49139578 -.00001062  00000-0 -48635-4 0  9995,2 52621  53.2171   9.2617 0002184  37.2696 322.8448 15.08819234 26022,6917.944,95.439,541.32,538.298,0.0
52621.0,STARLINK-3984,PAYLOAD,2022-11-01 02:06:03,15.08844438,0.0002143,53.2174,6.5846,37.8635,322.2508,2.0405e-05,3.7e-07,0.0,0 STARLINK-3984,1 52621U 22052Z   22305.08754127  .00000037  00000-0  20405-4 0  9998,2 52621  53.2174   6.5846 0002143  37.8635 322.2508 15.08844438 26499,6917.8669999999975,95.437,541.214,538.249,0.0
52621.0,STARLINK-3984,PAYLOAD,2022-11-01 10:02:59,15.08842185,0.0002063,53.2175,5.0971,35.0329,325.0799,-8.5305e-05,-1.646e-05,0.0,0 STARLINK-3984,1 52621U 22052Z   22305.41874597 -.00001646  00000-0 -85305-4 0  9998,2 52621  53.2175   5.0971 0002063  35.0329 325.0799 15.08842185 26168,6917.874,95.437,541.1659999999998,538.312,0.0
52621.0,STARLINK-3984,PAYLOAD,2022-11-02 09:53:46,15.08832279,0.0002158,53.218,0.6358,35.0284,325.0849,0.00021985,3.212e-05,0.0,0 STARLINK-3984,1 52621U 22052Z   22306.41234755  .00003212  00000-0  21985-3 0  9997,2 52621  53.2180   0.6358 0002158  35.0284 325.0849 15.08832279 26315,6917.904,95.438,541.262,538.276,0.0
